*******************************************************************************
JPL/HORIZONS              690 Wratislavia (A909 UE)        2020-Jun-22 09:25:11
Rec #:     690 (+COV) Soln.date: 2020-May-20_01:10:56   # obs: 3356 (1902-2020)
 
IAU76/J2000 helio. ecliptic osc. elements (au, days, deg., period=Julian yrs):
 
  EPOCH=  2455695.5 ! 2011-May-14.00 (TDB)         Residual RMS= .3023
   EC= .1833533553712358   QR= 2.566064582128721   TP= 2455261.489437222
   OM= 253.1908117060884   W=  114.8475577331497   IN= 11.26741879329042
   A= 3.142196933038544    MA= 76.79877144369172   ADIST= 3.718329283948368
   PER= 5.57004            N= .176951383           ANGMOM= .029975916
   DAN= 3.29005            DDN= 2.81934            L= 8.466238000000001
   B= 10.2126002           MOID= 1.59186995        TP= 2010-Mar-05.9894372220
 
Asteroid physical parameters (km, seconds, rotational period in hours):
   GM= n.a.                RAD= 67.325             ROTPER= 8.64
   H= 8.                   G= .150                 B-V= .675
                           ALBEDO= .0604           STYP= CPF
 
ASTEROID comments: 
1: soln ref.= JPL#45, OCC=0
2: source=ORB
*******************************************************************************
 
 
*******************************************************************************
Ephemeris / WWW_USER Mon Jun 22 09:25:11 2020 Pasadena, USA      / Horizons
*******************************************************************************
Target body name: 690 Wratislavia (A909 UE)       {source: JPL#45}
Center body name: Solar System Barycenter (0)     {source: DE431}
Center-site name: BODY CENTER
*******************************************************************************
Start time      : A.D. 1969-Jun-28 00:00:00.0000 TDB
Stop  time      : A.D. 2071-May-04 00:00:00.0000 TDB
Step-size       : 7200 minutes
*******************************************************************************
Center geodetic : 0.00000000,0.00000000,0.0000000 {E-lon(deg),Lat(deg),Alt(km)}
Center cylindric: 0.00000000,0.00000000,0.0000000 {E-lon(deg),Dxy(km),Dz(km)}
Center radii    : (undefined)                                                  
Small perturbers: Yes                             {source: SB431-N16}
Output units    : AU-D
Output type     : GEOMETRIC cartesian states
Output format   : 2 (position and velocity)
Reference frame : Ecliptic of J2000.0
*******************************************************************************
Initial IAU76/J2000 heliocentric ecliptic osculating elements (au, days, deg.):
  EPOCH=  2455695.5 ! 2011-May-14.00 (TDB)         Residual RMS= .3023         
   EC= .1833533553712358   QR= 2.566064582128721   TP= 2455261.489437222       
   OM= 253.1908117060884   W=  114.8475577331497   IN= 11.26741879329042       
  Equivalent ICRF heliocentric equatorial cartesian coordinates (au, au/d):
   X=-8.238760878272765E-01  Y= 2.870501979556201E+00  Z= 8.857508471523196E-01
  VX=-9.578427795075213E-03 VY=-1.834240349941909E-04 VZ=-2.009811434239174E-03
Asteroid physical parameters (km, seconds, rotational period in hours):        
   GM= n.a.                RAD= 67.325             ROTPER= 8.64                
   H= 8.                   G= .150                 B-V= .675                   
                           ALBEDO= .0604           STYP= CPF                   
*******************************************************************************
            JDTDB,            Calendar Date (TDB),        delta-T,                      X,                      Y,                      Z,                     VX,                     VY,                     VZ,
******************************************************************************************************************************************************************************************************************
$$SOE
2444320.500000000, A.D. 1980-Mar-22 00:00:00.0000,      51.185622, -2.729241589327355E+00, -2.339057059485834E+00, -3.914363593305794E-01,  5.840995978920956E-03, -5.744635463191349E-03,  1.439018810191410E-03,
2444325.500000000, A.D. 1980-Mar-27 00:00:00.0000,      51.185644, -2.699824072674155E+00, -2.367597031001128E+00, -3.842109430079536E-01,  5.925908326036215E-03, -5.671160912270099E-03,  1.451117320253229E-03,
2444330.500000000, A.D. 1980-Apr-01 00:00:00.0000,      51.185652, -2.669983539644639E+00, -2.395766744883699E+00, -3.769254921069102E-01,  6.010200518980486E-03, -5.596532126197984E-03,  1.463032241532760E-03,
2444335.500000000, A.D. 1980-Apr-06 00:00:00.0000,      51.185648, -2.639723121357649E+00, -2.423560425694145E+00, -3.695809306085761E-01,  6.093860380174641E-03, -5.520747398654972E-03,  1.474761151749598E-03,
2444340.500000000, A.D. 1980-Apr-11 00:00:00.0000,      51.185634, -2.609046010400391E+00, -2.450972289452507E+00, -3.621781947170936E-01,  6.176875498909139E-03, -5.443805020536084E-03,  1.486301583837597E-03,
2444345.500000000, A.D. 1980-Apr-16 00:00:00.0000,      51.185609, -2.577955462008321E+00, -2.477996543636469E+00, -3.547182330856667E-01,  6.259233225630591E-03, -5.365703284832913E-03,  1.497651025096142E-03,
2444350.500000000, A.D. 1980-Apr-21 00:00:00.0000,      51.185571, -2.546454795273885E+00, -2.504627387204434E+00, -3.472020070468617E-01,  6.340920666119449E-03, -5.286440491701001E-03,  1.508806916339217E-03,
2444355.500000000, A.D. 1980-Apr-26 00:00:00.0000,      51.185521, -2.514547394384601E+00, -2.530859010644369E+00, -3.396304908471509E-01,  6.421924675570768E-03, -5.206014953695928E-03,  1.519766651050855E-03,
2444360.500000000, A.D. 1980-May-01 00:00:00.0000,      51.185459, -2.482236709890965E+00, -2.556685596049223E+00, -3.320046718856456E-01,  6.502231852594811E-03, -5.124425001166249E-03,  1.530527574554222E-03,
2444365.500000000, A.D. 1980-May-06 00:00:00.0000,      51.185386, -2.449526260004496E+00, -2.582101317219677E+00, -3.243255509569371E-01,  6.581828533154904E-03, -5.041668987789383E-03,  1.541086983201709E-03,
2444370.500000000, A.D. 1980-May-11 00:00:00.0000,      51.185305, -2.416419631926222E+00, -2.607100339794882E+00, -3.165941424979130E-01,  6.660700784469944E-03, -4.957745296228641E-03,  1.551442123595202E-03,
2444375.500000000, A.D. 1980-May-16 00:00:00.0000,      51.185216, -2.382920483205611E+00, -2.631676821411731E+00, -3.088114748383781E-01,  6.738834398936133E-03, -4.872652343879806E-03,  1.561590191847068E-03,
2444380.500000000, A.D. 1980-May-21 00:00:00.0000,      51.185117, -2.349032543129676E+00, -2.655824911893039E+00, -3.009785904552503E-01,  6.816214888159975E-03, -4.786388588696998E-03,  1.571528332886265E-03,
2444385.500000000, A.D. 1980-May-26 00:00:00.0000,      51.185009, -2.314759614141458E+00, -2.679538753465227E+00, -2.930965462301555E-01,  6.892827477174286E-03, -4.698952535191938E-03,  1.581253639790618E-03,
2444390.500000000, A.D. 1980-May-31 00:00:00.0000,      51.184893, -2.280105573287091E+00, -2.702812481006823E+00, -2.851664137103654E-01,  6.968657098763109E-03, -4.610342740795951E-03,  1.590763153107519E-03,
2444395.500000000, A.D. 1980-Jun-05 00:00:00.0000,      51.184770, -2.245074373691271E+00, -2.725640222329924E+00, -2.771892793732115E-01,  7.043688387760946E-03, -4.520557822673460E-03,  1.600053860146891E-03,
2444400.500000000, A.D. 1980-Jun-10 00:00:00.0000,      51.184644, -2.209670046061428E+00, -2.748016098496739E+00, -2.691662448940753E-01,  7.117905675271471E-03, -4.429596464942203E-03,  1.609122694255853E-03,
2444405.500000000, A.D. 1980-Jun-15 00:00:00.0000,      51.184515, -2.173896700220977E+00, -2.769934224173177E+00, -2.610984274180433E-01,  7.191292982813066E-03, -4.337457426257854E-03,  1.617966534082419E-03,
2444410.500000000, A.D. 1980-Jun-20 00:00:00.0000,      51.184381, -2.137758526672050E+00, -2.791388708021241E+00, -2.529869598352603E-01,  7.263834016385397E-03, -4.244139547752221E-03,  1.626582202830616E-03,
2444415.500000000, A.D. 1980-Jun-25 00:00:00.0000,      51.184243, -2.101259798188103E+00, -2.812373653131969E+00, -2.448329910600205E-01,  7.335512160448992E-03, -4.149641761319748E-03,  1.634966467510920E-03,
2444420.500000000, A.D. 1980-Jun-30 00:00:00.0000,      51.184102, -2.064404871436830E+00, -2.832883157500689E+00, -2.366376863136119E-01,  7.406310471823757E-03, -4.053963098248421E-03,  1.643116038191834E-03,
2444425.500000000, A.D. 1980-Jul-05 00:00:00.0000,      51.183961, -2.027198188633775E+00, -2.852911314546284E+00, -2.284022274108799E-01,  7.476211673518090E-03, -3.957102698197686E-03,  1.651027567259366E-03,
2444430.500000000, A.D. 1980-Jul-10 00:00:00.0000,      51.183823, -1.989644279226933E+00, -2.872452213676224E+00, -2.201278130504592E-01,  7.545198148497981E-03, -3.859059818526396E-03,  1.658697648692202E-03,
2444435.500000000, A.D. 1980-Jul-15 00:00:00.0000,      51.183686, -1.951747761612648E+00, -2.891499940899103E+00, -2.118156591085762E-01,  7.613251933409927E-03, -3.759833843965897E-03,  1.666122817361910E-03,
2444440.500000000, A.D. 1980-Jul-20 00:00:00.0000,      51.183551, -1.913513344882960E+00, -2.910048579486395E+00, -2.034669989362616E-01,  7.680354712280006E-03, -3.659424296634951E-03,  1.673299548365590E-03,
2444445.500000000, A.D. 1980-Jul-25 00:00:00.0000,      51.183418, -1.874945830604453E+00, -2.928092210685129E+00, -1.950830836598149E-01,  7.746487810213732E-03, -3.557830846389695E-03,  1.680224256399094E-03,
2444450.500000000, A.D. 1980-Jul-30 00:00:00.0000,      51.183288, -1.836050114628553E+00, -2.945624914483190E+00, -1.866651824842922E-01,  7.811632187128813E-03, -3.455053321530704E-03,  1.686893295168676E-03,
2444455.500000000, A.D. 1980-Aug-04 00:00:00.0000,      51.183164, -1.796831188933047E+00, -2.962640770429043E+00, -1.782145829998305E-01,  7.875768431529602E-03, -3.351091719867183E-03,  1.693302956848678E-03,
